[{"OBJECT_NAME":"STARLINK-5996","OBJECT_ID":"2023-094K","EPOCH":"2026-03-08T23:47:53.593728","MEAN_MOTION":15.02537614,"ECCENTRICITY":0.00013634,"INCLINATION":43.0047,"RA_OF_ASC_NODE":34.2324,"ARG_OF_PERICENTER":267.6245,"MEAN_ANOMALY":92.4441,"EPHEMERIS_TYPE":0,"CLASSIFICATION_TYPE":"U","NORAD_CAT_ID":57227,"ELEMENT_SET_NO":999,"REV_AT_EPOCH":14701,"BSTAR":-1.178135e-5,"MEAN_MOTION_DOT":-3.63e-6,"MEAN_MOTION_DDOT":0},{"OBJECT_NAME":"NOAA 17 DEB","OBJECT_ID":"2002-032BW","EPOCH":"2026-03-08T22:40:23.580768","MEAN_MOTION":15.05196658,"ECCENTRICITY":0.00149213,"INCLINATION":98.7181,"RA_OF_ASC_NODE":121.0481,"ARG_OF_PERICENTER":217.4424,"MEAN_ANOMALY":142.5761,"EPHEMERIS_TYPE":0,"CLASSIFICATION_TYPE":"U","NORAD_CAT_ID":48737,"ELEMENT_SET_NO":999,"REV_AT_EPOCH":26108,"BSTAR":0.0055556624,"MEAN_MOTION_DOT":0.00080221,"MEAN_MOTION_DDOT":0}]
